NORAD_CAT_ID,OBJECT_NAME,OBJECT_TYPE,EPOCH,MEAN_MOTION,ECCENTRICITY,INCLINATION,RA_OF_ASC_NODE,ARG_OF_PERICENTER,MEAN_ANOMALY,BSTAR,MEAN_MOTION_DOT,MEAN_MOTION_DDOT,TLE_LINE0,TLE_LINE1,TLE_LINE2,SEMIMAJOR_AXIS,PERIOD,APOGEE,PERIGEE,DECAYED
51744.0,STARLINK-3452,PAYLOAD,2022-04-18 22:00:00,15.53497549,0.0001455,53.2172,221.7651,52.777,193.1191,-0.012116,-0.00715947,0.0,0 STARLINK-3452,1 51744U 22016AG  22108.91667824 -.00715947  00000-0 -12116-1 0  9995,2 51744  53.2172 221.7651 0001455  52.7770 193.1191 15.53497549  3707,6784.661,92.694,407.513,405.538,0.0
51744.0,STARLINK-3452,PAYLOAD,2022-04-19 14:00:01,15.52477747,0.0001641999999999,53.2173,218.5653,35.4459,339.7185,-0.012573,-0.00715889,0.0,0 STARLINK-3452,1 51744U 22016AG  22109.58334491 -.00715889  00000-0 -12573-1 0  9992,2 51744  53.2173 218.5653 0001642  35.4459 339.7185 15.52477747 10171,6787.630999999999,92.755,410.611,408.382,0.0
51744.0,STARLINK-3452,PAYLOAD,2022-04-20 14:00:01,15.50945381,0.0001933,53.2175,213.7739,36.8875,167.5853,-0.013197,-0.00720537,0.0,0 STARLINK-3452,1 51744U 22016AG  22110.58334491 -.00720537  00000-0 -13197-1 0  9993,2 51744  53.2175 213.7739 0001933  36.8875 167.5853 15.50945381  3707,6792.102,92.847,415.279,412.654,0.0
51744.0,STARLINK-3452,PAYLOAD,2022-04-20 22:00:00,15.50437645,0.0001537,53.2174,212.1784,46.3166,220.0329,-0.013521,-0.00724546,0.0,0 STARLINK-3452,1 51744U 22016AG  22110.91667824 -.00724546  00000-0 -13521-1 0  9994,2 51744  53.2174 212.1784 0001537  46.3166 220.0329 15.50437645 10382,6793.584,92.877,416.494,414.405,0.0
51744.0,STARLINK-3452,PAYLOAD,2022-04-21 14:00:01,15.49418179,0.000189,53.2176,208.9937,29.405,358.8589,-0.01403,-0.00725058,0.0,0 STARLINK-3452,1 51744U 22016AG  22111.58334491 -.00725058  00000-0 -14030-1 0  9994,2 51744  53.2176 208.9937 0001890  29.4050 358.8589 15.49418179  3719,6796.564,92.938,419.714,417.144,0.0
51744.0,STARLINK-3452,PAYLOAD,2022-04-21 22:00:00,15.48906058,0.0001587,53.2173,207.4018,38.4882,49.8156,-0.014202,-0.00721028,0.0,0 STARLINK-3452,1 51744U 22016AG  22111.91667824 -.00721028  00000-0 -14202-1 0  9994,2 51744  53.2173 207.4018 0001587  38.4882  49.8156 15.48906058  3686,6798.062,92.969,421.006,418.848,0.0
51744.0,STARLINK-3452,PAYLOAD,2022-04-22 06:00:00,15.48396093,0.0001643,53.2175,205.811,44.1468,103.5829,-0.014438,-0.00720037,0.0,0 STARLINK-3452,1 51744U 22016AG  22112.25001157 -.00720037  00000-0 -14438-1 0  9993,2 51744  53.2175 205.8110 0001643  44.1468 103.5829 15.48396093 10595,6799.555,92.999,422.537,420.302,0.0
51744.0,STARLINK-3452,PAYLOAD,2022-04-22 14:00:01,15.47885809,0.0002084,53.2174,204.2244,32.1601,174.3818,-0.014705,-0.00720377,0.0,0 STARLINK-3452,1 51744U 22016AG  22112.58334491 -.00720377  00000-0 -14705-1 0  9993,2 51744  53.2174 204.2244 0002084  32.1601 174.3818 15.47885809  3707,6801.049,93.03,424.331,421.497,0.0
51744.0,STARLINK-3452,PAYLOAD,2022-04-23 06:00:02,15.46865363,0.0001478,53.2175,201.0489,45.7671,276.628,-0.015198,-0.00718498,0.0,0 STARLINK-3452,1 51744U 22016AG  22113.25002315 -.00718498  00000-0 -15198-1 0  9993,2 51744  53.2175 201.0489 0001478  45.7671 276.6280 15.46865363 10740,6804.04,93.091,426.91,424.899,0.0
51744.0,STARLINK-3452,PAYLOAD,2022-04-23 14:00:01,15.46272165,0.0001693,53.2167,199.465,46.7066,332.6474,-0.013156,-0.00609413,0.0,0 STARLINK-3452,1 51744U 22016AG  22113.58334491 -.00609413  00000-0 -13156-1 0  9990,2 51744  53.2167 199.4650 0001693  46.7066 332.6474 15.46272165  3662,6805.78,93.127,428.797,426.492,0.0
51744.0,STARLINK-3452,PAYLOAD,2022-04-24 06:00:00,15.45335658,0.0001869,53.2176,196.2981,34.5692,96.8466,-0.016033,-0.00718916,0.0,0 STARLINK-3452,1 51744U 22016AG  22114.25001157 -.00718916  00000-0 -16033-1 0  9991,2 51744  53.2176 196.2981 0001869  34.5692  96.8466 15.45335658 10900,6808.529,93.184,431.667,429.121,0.0
51744.0,STARLINK-3452,PAYLOAD,2022-04-24 14:00:01,15.4482532,0.0002132,53.2175,194.7187,31.5391,155.0121,-0.016307,-0.00718564,0.0,0 STARLINK-3452,1 51744U 22016AG  22114.58334491 -.00718564  00000-0 -16307-1 0  9990,2 51744  53.2175 194.7187 0002132  31.5391 155.0121 15.44825320  3689,6810.028,93.214,433.345,430.441,0.0
51744.0,STARLINK-3452,PAYLOAD,2022-04-25 06:00:00,15.43806742,0.0001773,53.2177,191.558,36.5081,258.4775,-0.016923,-0.00720012,0.0,0 STARLINK-3452,1 51744U 22016AG  22115.25001157 -.00720012  00000-0 -16923-1 0  9990,2 51744  53.2177 191.5580 0001773  36.5081 258.4775 15.43806742 11053,6813.023,93.276,436.096,433.681,0.0
51744.0,STARLINK-3452,PAYLOAD,2022-04-25 14:00:01,15.43297096,0.0002023,53.2177,189.9824,27.3615,320.921,-0.017265,-0.00721841,0.0,0 STARLINK-3452,1 51744U 22016AG  22115.58334491 -.00721841  00000-0 -17265-1 0  9997,2 51744  53.2177 189.9824 0002023  27.3615 320.9210 15.43297096  3703,6814.523,93.307,437.767,435.01,0.0
51744.0,STARLINK-3452,PAYLOAD,2022-04-25 22:00:00,15.42786427,0.000155,53.2176,188.4045,38.3468,2.622,-0.017534,-0.00720537,0.0,0 STARLINK-3452,1 51744U 22016AG  22115.91667824 -.00720537  00000-0 -17534-1 0  9993,2 51744  53.2176 188.4045 0001550  38.3468   2.6220 15.42786427  3696,6816.026999999999,93.338,438.948,436.836,0.0
51744.0,STARLINK-3452,PAYLOAD,2022-04-26 06:00:00,15.42275654,0.0001822,53.2177,186.829,33.2985,59.743,-0.0177879999999999,-0.00718671,0.0,0 STARLINK-3452,1 51744U 22016AG  22116.25001157 -.00718671  00000-0 -17788-1 0  9999,2 51744  53.2177 186.8290 0001822  33.2985  59.7430 15.42275654 11219,6817.531999999997,93.369,440.639,438.155,0.0
51744.0,STARLINK-3452,PAYLOAD,2022-04-26 14:00:01,15.41764329,0.0001987,53.2175,185.2569,33.0897,111.4749,-0.018044,-0.00716761,0.0,0 STARLINK-3452,1 51744U 22016AG  22116.58335648 -.00716761  00000-0 -18044-1 0  9994,2 51744  53.2175 185.2569 0001987  33.0897 111.4749 15.41764329  3683,6819.0390000000025,93.399,442.259,439.549,0.0
51744.0,STARLINK-3452,PAYLOAD,2022-04-26 22:00:00,15.41256885,0.0001882,53.2175,183.6825,36.3341,159.0129,-0.018456,-0.00720446,0.0,0 STARLINK-3452,1 51744U 22016AG  22116.91667824 -.00720446  00000-0 -18456-1 0  9997,2 51744  53.2175 183.6825 0001882  36.3341 159.0129 15.41256885  3665,6820.536,93.43,443.684,441.117,0.0
51744.0,STARLINK-3452,PAYLOAD,2022-04-27 06:00:00,15.40745914,0.0001721999999999,53.2176,182.1109,43.0283,202.553,-0.018715,-0.00718333,0.0,0 STARLINK-3452,1 51744U 22016AG  22117.25001157 -.00718333  00000-0 -18715-1 0  9996,2 51744  53.2176 182.1109 0001722  43.0283 202.5530 15.40745914 11369,6822.044,93.461,445.083,442.734,0.0
51744.0,STARLINK-3452,PAYLOAD,2022-04-27 14:00:01,15.40114024,0.000171,53.2168,180.5412,38.5751,256.7606,-0.01471,-0.00556779,0.0,0 STARLINK-3452,1 51744U 22016AG  22117.58335648 -.00556779  00000-0 -14710-1 0  9992,2 51744  53.2168 180.5412 0001710  38.5751 256.7606 15.40114024  3644,6823.909000000002,93.5,446.941,444.608,0.0
51744.0,STARLINK-3452,PAYLOAD,2022-04-28 06:00:00,15.3912744,0.0001613,53.2168,177.4022,43.6861,348.9716,-0.016444,-0.00599069,0.0,0 STARLINK-3452,1 51744U 22016AG  22118.25001157 -.00599069  00000-0 -16444-1 0  9997,2 51744  53.2168 177.4022 0001613  43.6861 348.9716 15.39127440 11512,6826.825,93.56,449.791,447.589,0.0
51744.0,STARLINK-3452,PAYLOAD,2022-04-28 14:00:01,15.3870348,0.0001623,53.2174,175.8389,39.2564,41.1327,-0.019925,-0.00715,0.0,0 STARLINK-3452,1 51744U 22016AG  22118.58334491 -.00715000  00000-0 -19925-1 0  9995,2 51744  53.2174 175.8389 0001623  39.2564  41.1327 15.38703480 11578,6828.079000000002,93.585,451.052,448.836,0.0
51744.0,STARLINK-3452,PAYLOAD,2022-04-29 14:00:01,15.37171916,0.0001767,53.2175,171.1461,42.771,177.29,-0.020833,-0.00711348,0.0,0 STARLINK-3452,1 51744U 22016AG  22119.58334491 -.00711348  00000-0 -20833-1 0  9997,2 51744  53.2175 171.1461 0001767  42.7710 177.2900 15.37171916 11727,6832.614000000001,93.679,455.686,453.272,0.0
51744.0,STARLINK-3452,PAYLOAD,2022-04-29 22:00:00,15.36665621,0.0001724,53.2176,169.5824,40.292,225.1004,-0.021372,-0.00717347,0.0,0 STARLINK-3452,1 51744U 22016AG  22119.91667824 -.00717347  00000-0 -21372-1 0  9997,2 51744  53.2176 169.5824 0001724  40.2920 225.1004 15.36665621  3685,6834.115,93.709,457.158,454.801,0.0
51744.0,STARLINK-3452,PAYLOAD,2022-04-30 12:00:00,15.35772879,0.0001799,53.2176,166.8539,42.6237,210.6235,-0.021979,-0.00716771,0.0,0 STARLINK-3452,1 51744U 22016AG  22120.50001157 -.00716771  00000-0 -21979-1 0  9998,2 51744  53.2176 166.8539 0001799  42.6237 210.6235 15.35772879 11864,6836.763000000001,93.764,459.858,457.398,0.0
51744.0,STARLINK-3452,PAYLOAD,2022-04-30 14:00:01,15.3564445,0.0001641,53.2176,166.4642,36.78,317.4364,-0.022016,-0.00715118,0.0,0 STARLINK-3452,1 51744U 22016AG  22120.58334491 -.00715118  00000-0 -22016-1 0  9993,2 51744  53.2176 166.4642 0001641  36.7800 317.4364 15.35644450  3651,6837.144,93.772,460.131,457.887,0.0
51744.0,STARLINK-3452,PAYLOAD,2022-04-30 22:00:00,15.35135092,0.0001746,53.2176,164.9041,31.8422,5.8687,-0.022434,-0.00716731,0.0,0 STARLINK-3452,1 51744U 22016AG  22120.91667824 -.00716731  00000-0 -22434-1 0  9995,2 51744  53.2176 164.9041 0001746  31.8422   5.8687 15.35135092  3685,6838.656,93.803,461.715,459.327,0.0
51744.0,STARLINK-3452,PAYLOAD,2022-05-01 14:00:01,15.34112732,0.0002043,53.2174,161.7932,30.2787,92.5799,-0.023022,-0.00712232,0.0,0 STARLINK-3452,1 51744U 22016AG  22121.58334491 -.00712232  00000-0 -23022-1 0  9996,2 51744  53.2174 161.7932 0002043  30.2787  92.5799 15.34112732 12036,6841.694,93.865,464.957,462.161,0.0
51744.0,STARLINK-3452,PAYLOAD,2022-05-01 22:00:01,15.33604343,0.0001714,53.2174,160.2367,42.3217,122.2561,-0.023487,-0.00714689,0.0,0 STARLINK-3452,1 51744U 22016AG  22121.91668981 -.00714689  00000-0 -23487-1 0  9990,2 51744  53.2174 160.2367 0001714  42.3217 122.2561 15.33604343  3680,6843.206,93.896,466.244,463.898,0.0
